STARLINK-1182
1 25077C 20006AK  21324.99862590  .00496444  00000-0  11892-1 0  3246
2 25077  53.0547  87.0002 0001768  43.0579 229.7365 15.40354537    18
